ONEWEB-0456             
1 51646U 22012AA  24258.47485196  .00001010  00000+0  28575-2 0  9994
2 51646  87.8985 163.7436 0001983  82.8154 277.3198 13.10370962126725
ONEWEB-0457             
1 51647U 22012AB  24257.76437975  .00000336  00000+0  92742-3 0  9996
2 51647  87.8994 163.9143 0001830  67.9439 292.1883 13.10368292126644
ONEWEB-0458             
1 51648U 22012AC  24257.78596229 -.00000282  00000+0 -84447-3 0  9992
2 51648  87.8997 163.9263 0001648  71.4213 288.7093 13.10374683126609
ONEWEB-0461             
1 51649U 22012AD  24258.09942383  .00002065  00000+0  52859-2 0  9994
2 51649  87.9136 133.5564 0001603  66.8752 293.2548 13.17625043130753
ONEWEB-0463             
1 51650U 22012AE  24258.38536921  .00000087  00000+0  19183-3 0  9991
2 51650  87.9144 133.5513 0001710  73.9766 286.1554 13.17651935130589
ONEWEB-0464             
1 51651U 22012AF  24257.47720596 -.00000260  00000+0 -78241-3 0  9999
2 51651  87.8996 163.9761 0001772  86.3760 273.7570 13.10376956126581
ONEWEB-0468             
1 51652U 22012AG  24258.47649777 -.00000127  00000+0 -40119-3 0  9997
2 51652  87.8997 163.7713 0001802  75.1938 284.9389 13.10374831126688
ONEWEB-0473             
1 51653U 22012AH  24258.15611589 -.00000581  00000+0 -17012-2 0  9992
2 51653  87.8991 163.8381 0001687  74.0012 286.1301 13.10371976126659
ONEWEB-0474             
1 51654U 22012AJ  24257.76603477 -.00000600  00000+0 -17552-2 0  9997
2 51654  87.8977 163.9037 0001640  77.6360 282.4950 13.10371069126581
ONEWEB-0475             
1 51655U 22012AK  24257.40952192  .00000082  00000+0  17910-3 0  9991
2 51655  87.9144 133.7244 0000883  83.9298 276.1934 13.17653268130467
ONEWEB-0490             
1 54113U 22138A   24257.87615989  .00000059  00000+0  11470-3 0  9992
2 54113  87.9089  72.5248 0001736  95.0322 265.1008 13.19723912 93117
ONEWEB-0492             
1 54114U 22138B   24258.20469764  .00000204  00000+0  47733-3 0  9992
2 54114  87.9097  72.4668 0001766  99.8302 260.3030 13.19724827 93168
ONEWEB-0495             
1 54115U 22138C   24258.18258138 -.00000792  00000+0 -20115-2 0  9999
2 54115  87.9093  72.4830 0001525 122.1933 237.9348 13.19728115 93143
ONEWEB-0497             
1 54116U 22138D   24258.19521231  .00000155  00000+0  35555-3 0  9994
2 54116  87.9093  72.4646 0001437  97.6130 262.5166 13.19728313 93137
ONEWEB-0499             
1 54117U 22138E   24258.48110677  .00000110  00000+0  24199-3 0  9998
2 54117  87.9094  72.4126 0001253  87.7791 272.3485 13.19727269 93188
ONEWEB-0500             
1 54118U 22138F   24258.18100622  .00000113  00000+0  24951-3 0  9994
2 54118  87.9092  72.4660 0001813  92.4911 267.6429 13.19723161 93158
ONEWEB-0501             
1 54119U 22138G   24257.90775029  .00000182  00000+0  42313-3 0  9991
2 54119  87.9089  72.5175 0001533 109.2578 250.8720 13.19724352 93096
ONEWEB-0502             
1 54120U 22138H   24258.50006671  .00000082  00000+0  17259-3 0  9990
2 54120  87.9090  72.3873 0001484  98.8515 261.2786 13.19725228 93194
ONEWEB-0503             
1 54121U 22138J   24258.48900563  .00000071  00000+0  14620-3 0  9998
2 54121  87.9088  72.3958 0001480  80.0226 280.1073 13.19728856 93182
ONEWEB-0504             
1 54122U 22138K   24258.47637632  .00000092  00000+0  19635-3 0  9996
2 54122  87.9088  72.4064 0001417  94.6353 265.4941 13.19724104 93197
ONEWEB-0505             
1 54123U 22138L   24258.54903378 -.00000012  00000+0 -63368-4 0  9995
2 54123  87.9089  72.3854 0001368 114.9166 245.2109 13.19723456 93188
ONEWEB-0506             
1 54124U 22138M   24256.93160704  .00000274  00000+0  65300-3 0  9990
2 54124  87.9089  72.7055 0001607  97.3766 262.7550 13.19724380 92092
ONEWEB-0507             
1 54125U 22138N   24258.54429625  .00000084  00000+0  17675-3 0  9991
2 54125  87.9097  72.4121 0001752 101.5345 258.5984 13.19723557 93220
ONEWEB-0508             
1 54126U 22138P   24257.93458442  .00000056  00000+0  10682-3 0  9993
2 54126  87.9093  72.5248 0001764 108.5932 251.5392 13.19722679 93129
ONEWEB-0509             
1 54127U 22138Q   24257.90933045  .00000176  00000+0  40706-3 0  9991
2 54127  87.9092  72.5109 0001635  94.6932 265.4387 13.19724632 93092
ONEWEB-0510             
1 54128U 22138R   24258.15327678  .00000011  00000+0 -57897-5 0  9999
2 54128  87.9232  41.9371 0002228  93.2053 266.9335 13.20774872 95564
ONEWEB-0511             
1 54129U 22138S   24257.90616147  .00000198  00000+0  46230-3 0  9996
2 54129  87.9089  72.5148 0001409  84.9854 275.1440 13.19725770 93123
ONEWEB-0512             
1 54130U 22138T   24257.89827011  .00000205  00000+0  47925-3 0  9991
2 54130  87.9098  72.5394 0001402 104.7893 255.3395 13.19723973 93093
ONEWEB-0513             
1 54131U 22138U   24258.55136750  .00000071  00000+0  14395-3 0  9995
2 54131  87.9093  72.4014 0001238 104.5045 255.6225 13.19727673 93064
ONEWEB-0514             
1 54132U 22138V   24257.53498371  .00000175  00000+0  40590-3 0  9994
2 54132  87.9087  72.5967 0001738  88.3991 271.7341 13.19723787 93060
ONEWEB-0515             
1 54133U 22138W   24258.14067778  .00000075  00000+0  15206-3 0  9991
2 54133  87.9233  41.9185 0002737  91.2700 268.8747 13.20772646 95550
ONEWEB-0516             
1 54134U 22138X   24258.19205672  .00000211  00000+0  49406-3 0  9995
2 54134  87.9097  72.4826 0001774  92.8054 267.3282 13.19724496 93159
ONEWEB-0517             
1 54135U 22138Y   24258.55059087  .00000138  00000+0  31174-3 0  9994
2 54135  87.9089  72.3897 0001447  80.7376 279.3920 13.19726847 93208
ONEWEB-0518             
1 54136U 22138Z   24258.19047952  .00000181  00000+0  41873-3 0  9998
2 54136  87.9096  72.4805 0001622  89.1365 270.9953 13.19723735 93153
ONEWEB-0519             
1 54137U 22138AA  24257.53335978 -.00002381  00000+0 -59807-2 0  9995
2 54137  87.9088  72.5878 0001500  89.4609 270.6696 13.19736242 93074
ONEWEB-0520             
1 54138U 22138AB  24257.49233703  .00000763  00000+0  18730-2 0  9994
2 54138  87.9091  72.5994 0001614 106.6613 253.4697 13.19729023 93058
ONEWEB-0521             
1 54139U 22138AC  24257.52550451  .00000364  00000+0  87701-3 0  9993
2 54139  87.9087  72.5840 0001710  81.7898 278.3428 13.19726547 93033
ONEWEB-0522             
1 54140U 22138AD  24258.18732203  .00000138  00000+0  31296-3 0  9992
2 54140  87.9085  72.4535 0001773  93.7819 266.3516 13.19724238 93139
ONEWEB-0523             
1 54141U 22138AE  24257.82500653  .00000139  00000+0  30922-3 0  9991
2 54141  87.9233  42.0102 0002324  78.0256 282.1138 13.20773851 95519
ONEWEB-0524             
1 54142U 22138AF  24258.42002975  .00000123  00000+0  27100-3 0  9990
2 54142  87.9233  41.8944 0002854  99.1409 261.0047 13.20771750 95592
ONEWEB-0525             
1 54143U 22138AG  24258.20624959  .00000127  00000+0  28402-3 0  9999
2 54143  87.9091  72.4609 0001524 101.6519 258.4785 13.19727749 93153
ONEWEB-0526             
1 54144U 22138AH  24258.54269451  .00000104  00000+0  22846-3 0  9990
2 54144  87.9086  72.3873 0001789  95.1426 264.9911 13.19728499 93175
ONEWEB-0529             
1 54145U 22138AJ  24257.56025735  .00000052  00000+0  96396-4 0  9991
2 54145  87.9097  72.6054 0001626 101.8943 258.2372 13.19725338 93065
ONEWEB-0531             
1 54146U 22138AK  24257.42097550  .00000188  00000+0  43015-3 0  9990
2 54146  87.9232  42.0851 0002748  84.7423 275.4024 13.20774943 95460
ONEWEB-0535             
1 54147U 22138AL  24258.50322825  .00000078  00000+0  16205-3 0  9996
2 54147  87.9088  72.3928 0001950  84.8990 275.2365 13.19725616 93202
ONEWEB-0536             
1 54148U 22138AM  24258.16592253 -.00000024  00000+0 -92015-4 0  9990
2 54148  87.9230  41.9851 0002334  72.1089 288.0298 13.20770207 95550
ONEWEB-0527             
1 54642U 22166A   24258.02279114  .00000151  00000+0  33314-3 0  9998
2 54642  87.9357  11.6568 0001851 100.8117 259.3225 13.21826819 87286
ONEWEB-0528             
1 54643U 22166B   24257.87773265  .00000156  00000+0  34665-3 0  9992
2 54643  87.9361  11.6752 0001829 104.9660 255.1676 13.21824968 87276
ONEWEB-0539             
1 54644U 22166C   24257.83830109  .00000088  00000+0  18217-3 0  9999
2 54644  87.9364  11.6866 0001631  99.9430 260.1888 13.21824530 87260
ONEWEB-0540             
1 54645U 22166D   24257.37859244  .00000085  00000+0  17442-3 0  9996
2 54645  87.9356  11.7909 0001526  99.9208 260.2098 13.21828853 87218
ONEWEB-0542             
1 54646U 22166E   24258.07485818  .00000027  00000+0  33431-4 0  9990
2 54646  87.9362  11.6389 0001466  92.0407 268.0895 13.21826411 87304
ONEWEB-0545             
1 54647U 22166F   24258.04170759 -.00000221  00000+0 -56558-3 0  9995
2 54647  87.9354  11.6575 0001262 101.3744 258.7532 13.21826579 87270
ONEWEB-0580             
1 54648U 22166G   24257.86351485  .00000067  00000+0  13129-3 0  9995
2 54648  87.9359  11.6682 0001418  87.1855 272.9441 13.21829988 87287
ONEWEB-0582             
1 54649U 22166H   24258.05750239  .00000014  00000+0  15228-5 0  9994
2 54649  87.9356  11.6643 0001485  79.0808 281.0493 13.21825496 87293
ONEWEB-0583             
1 54650U 22166J   24258.37131420  .00000072  00000+0  14369-3 0  9993
2 54650  87.9355  11.6010 0001728 100.1183 260.0146 13.21824849 87354
ONEWEB-0584             
1 54651U 22166K   24258.01332993  .00000119  00000+0  25697-3 0  9991
2 54651  87.9360  11.6423 0001517  94.3396 265.7912 13.21826338 87285
ONEWEB-0585             
1 54652U 22166L   24257.35731416  .00000095  00000+0  19794-3 0  9995
2 54652  87.9364  11.7828 0001853 101.1409 258.9933 13.21824505 87208
ONEWEB-0586             
1 54653U 22166M   24258.05120112  .00000038  00000+0  61273-4 0  9996
2 54653  87.9357  11.6546 0001595  96.2720 263.8596 13.21825778 87292
ONEWEB-0587             
1 54654U 22166N   24257.37939310  .00000038  00000+0  61313-4 0  9994
2 54654  87.9356  11.7418 0002036 105.1917 254.9442 13.21825626 87350
